STARLINK-30224          
1 57416U 23102N   25300.22945299  .00000164  00000+0  27218-4 0  9997
2 57416  43.0020 253.7887 0001069 277.2227  82.8494 15.02531395126164
STARLINK-30043          
1 57417U 23102P   25300.22279335  .00008682  00000+0  65768-3 0  9993
2 57417  43.0023 253.7367 0000618 274.5362  85.5410 15.02495452126161
STARLINK-30221          
1 57418U 23102Q   25300.29261353 -.00000947  00000+0 -55081-4 0  9998
2 57418  43.0007 253.4033 0000952 270.7895  89.2838 15.02520340126172
STARLINK-30189          
1 57430U 23105A   25300.25917917  .00000195  00000+0  29529-4 0  9996
2 57430  43.0033 267.1514 0000998 278.2847  81.7882 15.02535472125448
STARLINK-30188          
1 57432U 23105C   25300.25251849 -.00000136  00000+0  50224-5 0  9996
2 57432  43.0039 267.0999 0001092 276.2797  83.7921 15.02535470125455
STARLINK-30105          
1 57433U 23105D   25299.83152234  .00001595  00000+0  67445-4 0  9997
2 57433  43.0013  66.7873 0001047 254.8667 105.2069 15.27583145127859
STARLINK-30102          
1 57434U 23105E   25300.24586079 -.00000252  00000+0 -35645-5 0  9993
2 57434  43.0035 267.0477 0001108 271.3894  88.6822 15.02532438125439
STARLINK-30183          
1 57436U 23105G   25300.33336806  .00234970  00000+0  49541-2 0  9997
2 57436  42.9858 229.0679 0030594 175.0899 288.2892 15.43146741  5884
STARLINK-30237          
1 57437U 23105H   25300.23587508 -.00002587  00000+0 -17651-3 0  9991
2 57437  43.0034 266.9742 0001410 267.6231  92.4450 15.02533446125488
STARLINK-30158          
1 57438U 23105J   25300.30566871  .00001452  00000+0  12250-3 0  9998
2 57438  43.0036 266.6389 0001368 269.3439  90.7247 15.02543121125493
STARLINK-30159          
1 57440U 23105L   25300.33336806  .00329909  00000+0  21170-1 0  9996
2 57440  43.0011 266.2258 0001340 285.6083 335.4464 15.06141502  5708
STARLINK-30160          
1 57441U 23105M   25300.29568507  .00000418  00000+0  46020-4 0  9992
2 57441  43.0034 266.5593 0001093 273.8260  86.2457 15.02538328125337
STARLINK-30146          
1 57442U 23105N   25300.29235732  .00000062  00000+0  19650-4 0  9998
2 57442  43.0034 266.5364 0001103 264.9170  95.1546 15.02535425125554
STARLINK-30197          
1 57443U 23105P   25300.28902717  .00000651  00000+0  63229-4 0  9997
2 57443  43.0043 266.5103 0001202 276.6803  83.3903 15.02536315125497
STARLINK-30181          
1 57444U 23105Q   25300.27570860  .00000529  00000+0  54229-4 0  9991
2 57444  43.0036 266.4129 0001251 274.8382  85.2317 15.02536144125550
STARLINK-30215          
1 57445U 23105R   25300.28014663  .00000177  00000+0  28178-4 0  9990
2 57445  43.0030 266.4480 0001197 269.6840  90.3865 15.02536787125339
