[{"OBJECT_NAME":"STARLINK-30224","OBJECT_ID":"2023-102N","EPOCH":"2025-10-27T05:30:24.738336","MEAN_MOTION":15.02531395,"ECCENTRICITY":0.00010692,"INCLINATION":43.002,"RA_OF_ASC_NODE":253.7887,"ARG_OF_PERICENTER":277.2227,"MEAN_ANOMALY":82.8494,"EPHEMERIS_TYPE":0,"CLASSIFICATION_TYPE":"U","NORAD_CAT_ID":57416,"ELEMENT_SET_NO":999,"REV_AT_EPOCH":12616,"BSTAR":2.7217664e-5,"MEAN_MOTION_DOT":1.64e-6,"MEAN_MOTION_DDOT":0},{"OBJECT_NAME":"STARLINK-30043","OBJECT_ID":"2023-102P","EPOCH":"2025-10-27T05:20:49.345440","MEAN_MOTION":15.02495452,"ECCENTRICITY":6.181e-5,"INCLINATION":43.0023,"RA_OF_ASC_NODE":253.7367,"ARG_OF_PERICENTER":274.5362,"MEAN_ANOMALY":85.541,"EPHEMERIS_TYPE":0,"CLASSIFICATION_TYPE":"U","NORAD_CAT_ID":57417,"ELEMENT_SET_NO":999,"REV_AT_EPOCH":12616,"BSTAR":0.00065767751,"MEAN_MOTION_DOT":8.682e-5,"MEAN_MOTION_DDOT":0},{"OBJECT_NAME":"STARLINK-30221","OBJECT_ID":"2023-102Q","EPOCH":"2025-10-27T07:01:21.808992","MEAN_MOTION":15.0252034,"ECCENTRICITY":9.525e-5,"INCLINATION":43.0007,"RA_OF_ASC_NODE":253.4033,"ARG_OF_PERICENTER":270.7895,"MEAN_ANOMALY":89.2838,"EPHEMERIS_TYPE":0,"CLASSIFICATION_TYPE":"U","NORAD_CAT_ID":57418,"ELEMENT_SET_NO":999,"REV_AT_EPOCH":12617,"BSTAR":-5.5080639e-5,"MEAN_MOTION_DOT":-9.47e-6,"MEAN_MOTION_DDOT":0},{"OBJECT_NAME":"STARLINK-30189","OBJECT_ID":"2023-105A","EPOCH":"2025-10-27T06:13:13.080288","MEAN_MOTION":15.02535472,"ECCENTRICITY":9.985e-5,"INCLINATION":43.0033,"RA_OF_ASC_NODE":267.1514,"ARG_OF_PERICENTER":278.2847,"MEAN_ANOMALY":81.7882,"EPHEMERIS_TYPE":0,"CLASSIFICATION_TYPE":"U","NORAD_CAT_ID":57430,"ELEMENT_SET_NO":999,"REV_AT_EPOCH":12544,"BSTAR":2.9528882e-5,"MEAN_MOTION_DOT":1.95e-6,"MEAN_MOTION_DDOT":0},{"OBJECT_NAME":"STARLINK-30188","OBJECT_ID":"2023-105C","EPOCH":"2025-10-27T06:03:37.597536","MEAN_MOTION":15.0253547,"ECCENTRICITY":0.00010926,"INCLINATION":43.0039,"RA_OF_ASC_NODE":267.0999,"ARG_OF_PERICENTER":276.2797,"MEAN_ANOMALY":83.7921,"EPHEMERIS_TYPE":0,"CLASSIFICATION_TYPE":"U","NORAD_CAT_ID":57432,"ELEMENT_SET_NO":999,"REV_AT_EPOCH":12545,"BSTAR":5.022363e-6,"MEAN_MOTION_DOT":-1.36e-6,"MEAN_MOTION_DDOT":0},{"OBJECT_NAME":"STARLINK-30105","OBJECT_ID":"2023-105D","EPOCH":"2025-10-26T19:57:23.530176","MEAN_MOTION":15.27583145,"ECCENTRICITY":0.0001047,"INCLINATION":43.0013,"RA_OF_ASC_NODE":66.7873,"ARG_OF_PERICENTER":254.8667,"MEAN_ANOMALY":105.2069,"EPHEMERIS_TYPE":0,"CLASSIFICATION_TYPE":"U","NORAD_CAT_ID":57433,"ELEMENT_SET_NO":999,"REV_AT_EPOCH":12785,"BSTAR":6.7445e-5,"MEAN_MOTION_DOT":1.595e-5,"MEAN_MOTION_DDOT":0},{"OBJECT_NAME":"STARLINK-30102","OBJECT_ID":"2023-105E","EPOCH":"2025-10-27T05:54:02.372256","MEAN_MOTION":15.02532438,"ECCENTRICITY":0.00011085,"INCLINATION":43.0035,"RA_OF_ASC_NODE":267.0477,"ARG_OF_PERICENTER":271.3894,"MEAN_ANOMALY":88.6822,"EPHEMERIS_TYPE":0,"CLASSIFICATION_TYPE":"U","NORAD_CAT_ID":57434,"ELEMENT_SET_NO":999,"REV_AT_EPOCH":12543,"BSTAR":-3.564491e-6,"MEAN_MOTION_DOT":-2.52e-6,"MEAN_MOTION_DDOT":0},{"OBJECT_NAME":"STARLINK-30183","OBJECT_ID":"2023-105G","EPOCH":"2025-10-27T08:00:03.000384","MEAN_MOTION":15.43146741,"ECCENTRICITY":0.00305948,"INCLINATION":42.9858,"RA_OF_ASC_NODE":229.0679,"ARG_OF_PERICENTER":175.0899,"MEAN_ANOMALY":288.2892,"EPHEMERIS_TYPE":0,"CLASSIFICATION_TYPE":"U","NORAD_CAT_ID":57436,"ELEMENT_SET_NO":999,"REV_AT_EPOCH":588,"BSTAR":0.0049540921,"MEAN_MOTION_DOT":0.0023497,"MEAN_MOTION_DDOT":0},{"OBJECT_NAME":"STARLINK-30237","OBJECT_ID":"2023-105H","EPOCH":"2025-10-27T05:39:39.606912","MEAN_MOTION":15.02533446,"ECCENTRICITY":0.00014109,"INCLINATION":43.0034,"RA_OF_ASC_NODE":266.9742,"ARG_OF_PERICENTER":267.6231,"MEAN_ANOMALY":92.445,"EPHEMERIS_TYPE":0,"CLASSIFICATION_TYPE":"U","NORAD_CAT_ID":57437,"ELEMENT_SET_NO":999,"REV_AT_EPOCH":12548,"BSTAR":-0.00017651199,"MEAN_MOTION_DOT":-2.587e-5,"MEAN_MOTION_DDOT":0},{"OBJECT_NAME":"STARLINK-30158","OBJECT_ID":"2023-105J","EPOCH":"2025-10-27T07:20:09.776544","MEAN_MOTION":15.02543121,"ECCENTRICITY":0.00013686,"INCLINATION":43.0036,"RA_OF_ASC_NODE":266.6389,"ARG_OF_PERICENTER":269.3439,"MEAN_ANOMALY":90.7247,"EPHEMERIS_TYPE":0,"CLASSIFICATION_TYPE":"U","NORAD_CAT_ID":57438,"ELEMENT_SET_NO":999,"REV_AT_EPOCH":12549,"BSTAR":0.00012250101,"MEAN_MOTION_DOT":1.452e-5,"MEAN_MOTION_DDOT":0},{"OBJECT_NAME":"STARLINK-30159","OBJECT_ID":"2023-105L","EPOCH":"2025-10-27T08:00:03.000384","MEAN_MOTION":15.06141502,"ECCENTRICITY":0.00013405,"INCLINATION":43.0011,"RA_OF_ASC_NODE":266.2258,"ARG_OF_PERICENTER":285.6083,"MEAN_ANOMALY":335.4464,"EPHEMERIS_TYPE":0,"CLASSIFICATION_TYPE":"U","NORAD_CAT_ID":57440,"ELEMENT_SET_NO":999,"REV_AT_EPOCH":570,"BSTAR":0.021169666,"MEAN_MOTION_DOT":0.00329909,"MEAN_MOTION_DDOT":0},{"OBJECT_NAME":"STARLINK-30160","OBJECT_ID":"2023-105M","EPOCH":"2025-10-27T07:05:47.190048","MEAN_MOTION":15.02538328,"ECCENTRICITY":0.00010937,"INCLINATION":43.0034,"RA_OF_ASC_NODE":266.5593,"ARG_OF_PERICENTER":273.826,"MEAN_ANOMALY":86.2457,"EPHEMERIS_TYPE":0,"CLASSIFICATION_TYPE":"U","NORAD_CAT_ID":57441,"ELEMENT_SET_NO":999,"REV_AT_EPOCH":12533,"BSTAR":4.6019681e-5,"MEAN_MOTION_DOT":4.18e-6,"MEAN_MOTION_DDOT":0},{"OBJECT_NAME":"STARLINK-30146","OBJECT_ID":"2023-105N","EPOCH":"2025-10-27T07:00:59.672448","MEAN_MOTION":15.02535425,"ECCENTRICITY":0.00011039,"INCLINATION":43.0034,"RA_OF_ASC_NODE":266.5364,"ARG_OF_PERICENTER":264.917,"MEAN_ANOMALY":95.1546,"EPHEMERIS_TYPE":0,"CLASSIFICATION_TYPE":"U","NORAD_CAT_ID":57442,"ELEMENT_SET_NO":999,"REV_AT_EPOCH":12555,"BSTAR":1.965012e-5,"MEAN_MOTION_DOT":6.2e-7,"MEAN_MOTION_DDOT":0},{"OBJECT_NAME":"STARLINK-30197","OBJECT_ID":"2023-105P","EPOCH":"2025-10-27T06:56:11.947488","MEAN_MOTION":15.02536315,"ECCENTRICITY":0.00012028,"INCLINATION":43.0043,"RA_OF_ASC_NODE":266.5103,"ARG_OF_PERICENTER":276.6803,"MEAN_ANOMALY":83.3903,"EPHEMERIS_TYPE":0,"CLASSIFICATION_TYPE":"U","NORAD_CAT_ID":57443,"ELEMENT_SET_NO":999,"REV_AT_EPOCH":12549,"BSTAR":6.3228866e-5,"MEAN_MOTION_DOT":6.51e-6,"MEAN_MOTION_DDOT":0},{"OBJECT_NAME":"STARLINK-30181","OBJECT_ID":"2023-105Q","EPOCH":"2025-10-27T06:37:01.223040","MEAN_MOTION":15.02536144,"ECCENTRICITY":0.00012518,"INCLINATION":43.0036,"RA_OF_ASC_NODE":266.4129,"ARG_OF_PERICENTER":274.8382,"MEAN_ANOMALY":85.2317,"EPHEMERIS_TYPE":0,"CLASSIFICATION_TYPE":"U","NORAD_CAT_ID":57444,"ELEMENT_SET_NO":999,"REV_AT_EPOCH":12555,"BSTAR":5.4229346e-5,"MEAN_MOTION_DOT":5.29e-6,"MEAN_MOTION_DDOT":0},{"OBJECT_NAME":"STARLINK-30215","OBJECT_ID":"2023-105R","EPOCH":"2025-10-27T06:43:24.668832","MEAN_MOTION":15.02536787,"ECCENTRICITY":0.0001197,"INCLINATION":43.003,"RA_OF_ASC_NODE":266.448,"ARG_OF_PERICENTER":269.684,"MEAN_ANOMALY":90.3865,"EPHEMERIS_TYPE":0,"CLASSIFICATION_TYPE":"U","NORAD_CAT_ID":57445,"ELEMENT_SET_NO":999,"REV_AT_EPOCH":12533,"BSTAR":2.8177794e-5,"MEAN_MOTION_DOT":1.77e-6,"MEAN_MOTION_DDOT":0}]
